{
  "type": "FeatureCollection",
  "features": [
    {
      "type": "Feature",
      "properties": {
        "norad_id": 33376,
        "name": "GALAXY 19 (G-19)",
        "group": "intelsat",
        "lat": 0.031359374072062705,
        "lon": 63.52064912200557,
        "alt_km": 35796.090901846226,
        "timestamp": "2025-12-17T04:57:44.067557+00:00",
        "meta_object_name": "GALAXY 19 (G-19)",
        "meta_object_id": "2008-045A",
        "meta_epoch": "2025-12-16T16:18:59.063328",
        "meta_mean_motion": 1.00271105,
        "meta_eccentricity": 0.00025365,
        "meta_inclination": 0.0245,
        "meta_ra_of_asc_node": 279.7518,
        "meta_arg_of_pericenter": 347.9826,
        "meta_mean_anomaly": 325.5808,
        "meta_ephemeris_type": 0,
        "meta_classification_type": "U",
        "meta_norad_cat_id": 33376,
        "meta_element_set_no": 999,
        "meta_rev_at_epoch": 6307,
        "meta_bstar": 0,
        "meta_mean_motion_dot": -1.15e-06,
        "meta_mean_motion_ddot": 0,
        "tle_line1": "1 33376U 08045A   25350.67985027 -.00000115  00000+0  00000+0 0  9994",
        "tle_line2": "2 33376   0.0245 279.7518 0002536 347.9826 325.5808  1.00271105 63073"
      },
      "geometry": {
        "type": "Point",
        "coordinates": [
          63.52064912200557,
          0.031359374072062705
        ]
      }
    },
    {
      "type": "Feature",
      "properties": {
        "norad_id": 35493,
        "name": "FM-5",
        "group": "intelsat",
        "lat": 0.030559489524164554,
        "lon": 74.35613316971725,
        "alt_km": 35785.59423562592,
        "timestamp": "2025-12-17T04:57:44.067567+00:00",
        "meta_object_name": "FM-5",
        "meta_object_id": "2009-034A",
        "meta_epoch": "2025-12-16T14:39:37.350144",
        "meta_mean_motion": 1.00270597,
        "meta_eccentricity": 8.841e-05,
        "meta_inclination": 0.0221,
        "meta_ra_of_asc_node": 289.5649,
        "meta_arg_of_pericenter": 221.602,
        "meta_mean_anomaly": 68.0984,
        "meta_ephemeris_type": 0,
        "meta_classification_type": "U",
        "meta_norad_cat_id": 35493,
        "meta_element_set_no": 999,
        "meta_rev_at_epoch": 4481,
        "meta_bstar": 0,
        "meta_mean_motion_dot": -1.76e-06,
        "meta_mean_motion_ddot": 0,
        "tle_line1": "1 35493U 09034A   25350.61084896 -.00000176  00000+0  00000+0 0  9990",
        "tle_line2": "2 35493   0.0221 289.5649 0000884 221.6020  68.0984  1.00270597 44810"
      },
      "geometry": {
        "type": "Point",
        "coordinates": [
          74.35613316971725,
          0.030559489524164554
        ]
      }
    },
    {
      "type": "Feature",
      "properties": {
        "norad_id": 36097,
        "name": "INTELSAT 14 (IS-14)",
        "group": "intelsat",
        "lat": 0.018110475231116745,
        "lon": 115.50973180988606,
        "alt_km": 35795.659115727016,
        "timestamp": "2025-12-17T04:57:44.067578+00:00",
        "meta_object_name": "INTELSAT 14 (IS-14)",
        "meta_object_id": "2009-064A",
        "meta_epoch": "2025-12-16T16:34:05.116800",
        "meta_mean_motion": 1.00272436,
        "meta_eccentricity": 0.00024568,
        "meta_inclination": 0.0142,
        "meta_ra_of_asc_node": 314.6484,
        "meta_arg_of_pericenter": 319.9167,
        "meta_mean_anomaly": 14.5445,
        "meta_ephemeris_type": 0,
        "meta_classification_type": "U",
        "meta_norad_cat_id": 36097,
        "meta_element_set_no": 999,
        "meta_rev_at_epoch": 5877,
        "meta_bstar": 0,
        "meta_mean_motion_dot": -2.49e-06,
        "meta_mean_motion_ddot": 0,
        "tle_line1": "1 36097U 09064A   25350.69033700 -.00000249  00000+0  00000+0 0  9991",
        "tle_line2": "2 36097   0.0142 314.6484 0002456 319.9167  14.5445  1.00272436 58772"
      },
      "geometry": {
        "type": "Point",
        "coordinates": [
          115.50973180988606,
          0.018110475231116745
        ]
      }
    },
    {
      "type": "Feature",
      "properties": {
        "norad_id": 36106,
        "name": "INTELSAT 15 (IS-15)",
        "group": "intelsat",
        "lat": -0.04143447620839331,
        "lon": -114.34922132850254,
        "alt_km": 35778.18583431555,
        "timestamp": "2025-12-17T04:57:44.067589+00:00",
        "meta_object_name": "INTELSAT 15 (IS-15)",
        "meta_object_id": "2009-067A",
        "meta_epoch": "2025-12-16T18:53:51.733248",
        "meta_mean_motion": 1.00271772,
        "meta_eccentricity": 0.00021753,
        "meta_inclination": 0.0165,
        "meta_ra_of_asc_node": 331.1798,
        "meta_arg_of_pericenter": 305.1758,
        "meta_mean_anomaly": 177.9387,
        "meta_ephemeris_type": 0,
        "meta_classification_type": "U",
        "meta_norad_cat_id": 36106,
        "meta_element_set_no": 999,
        "meta_rev_at_epoch": 3940,
        "meta_bstar": 0,
        "meta_mean_motion_dot": -1.61e-06,
        "meta_mean_motion_ddot": 0,
        "tle_line1": "1 36106U 09067A   25350.78740432 -.00000161  00000+0  00000+0 0  9995",
        "tle_line2": "2 36106   0.0165 331.1798 0002175 305.1758 177.9387  1.00271772 39401"
      },
      "geometry": {
        "type": "Point",
        "coordinates": [
          -114.34922132850254,
          -0.04143447620839331
        ]
      }
    },
    {
      "type": "Feature",
      "properties": {
        "norad_id": 36131,
        "name": "DIRECTV 12",
        "group": "intelsat",
        "lat": 0.0195223390253111,
        "lon": 57.77990029677494,
        "alt_km": 35787.58173181424,
        "timestamp": "2025-12-17T04:57:44.067600+00:00",
        "meta_object_name": "DIRECTV 12",
        "meta_object_id": "2009-075A",
        "meta_epoch": "2025-12-16T16:17:36.693888",
        "meta_mean_motion": 1.00265392,
        "meta_eccentricity": 7.88e-06,
        "meta_inclination": 0.0454,
        "meta_ra_of_asc_node": 160.5616,
        "meta_arg_of_pericenter": 231.7004,
        "meta_mean_anomaly": 194.9906,
        "meta_ephemeris_type": 0,
        "meta_classification_type": "U",
        "meta_norad_cat_id": 36131,
        "meta_element_set_no": 999,
        "meta_rev_at_epoch": 4472,
        "meta_bstar": 0,
        "meta_mean_motion_dot": -7.9e-07,
        "meta_mean_motion_ddot": 0,
        "tle_line1": "1 36131U 09075A   25350.67889692 -.00000079  00000+0  00000+0 0  9990",
        "tle_line2": "2 36131   0.0454 160.5616 0000078 231.7004 194.9906  1.00265392 44729"
      },
      "geometry": {
        "type": "Point",
        "coordinates": [
          57.77990029677494,
          0.0195223390253111
        ]
      }
    },
    {
      "type": "Feature",
      "properties": {
        "norad_id": 36397,
        "name": "INTELSAT 16 (IS-16)",
        "group": "intelsat",
        "lat": 0.034866714699193,
        "lon": 84.3115807436558,
        "alt_km": 35794.276710213606,
        "timestamp": "2025-12-17T04:57:44.067611+00:00",
        "meta_object_name": "INTELSAT 16 (IS-16)",
        "meta_object_id": "2010-006A",
        "meta_epoch": "2025-12-16T20:45:50.831424",
        "meta_mean_motion": 1.00271042,
        "meta_eccentricity": 0.00018878,
        "meta_inclination": 0.0101,
        "meta_ra_of_asc_node": 344.3729,
        "meta_arg_of_pericenter": 285.5095,
        "meta_mean_anomaly": 51.1317,
        "meta_ephemeris_type": 0,
        "meta_classification_type": "U",
        "meta_norad_cat_id": 36397,
        "meta_element_set_no": 999,
        "meta_rev_at_epoch": 5782,
        "meta_bstar": 0,
        "meta_mean_motion_dot": -2.2e-06,
        "meta_mean_motion_ddot": 0,
        "tle_line1": "1 36397U 10006A   25350.86517166 -.00000220  00000+0  00000+0 0  9993",
        "tle_line2": "2 36397   0.0101 344.3729 0001887 285.5095  51.1317  1.00271042 57829"
      },
      "geometry": {
        "type": "Point",
        "coordinates": [
          84.3115807436558,
          0.034866714699193
        ]
      }
    },
    {
      "type": "Feature",
      "properties": {
        "norad_id": 37185,
        "name": "XM-5",
        "group": "intelsat",
        "lat": 0.06560626640775236,
        "lon": 45.29491102034213,
        "alt_km": 35787.60525843208,
        "timestamp": "2025-12-17T04:57:44.067621+00:00",
        "meta_object_name": "XM-5",
        "meta_object_id": "2010-053A",
        "meta_epoch": "2025-12-16T16:13:59.541312",
        "meta_mean_motion": 1.00270347,
        "meta_eccentricity": 0.00018771,
        "meta_inclination": 0.0652,
        "meta_ra_of_asc_node": 272.4176,
        "meta_arg_of_pericenter": 231.4449,
        "meta_mean_anomaly": 70.0101,
        "meta_ephemeris_type": 0,
        "meta_classification_type": "U",
        "meta_norad_cat_id": 37185,
        "meta_element_set_no": 999,
        "meta_rev_at_epoch": 5565,
        "meta_bstar": 0,
        "meta_mean_motion_dot": 1e-08,
        "meta_mean_motion_ddot": 0,
        "tle_line1": "1 37185U 10053A   25350.67638358  .00000001  00000+0  00000+0 0  9993",
        "tle_line2": "2 37185   0.0652 272.4176 0001877 231.4449  70.0101  1.00270347 55652"
      },
      "geometry": {
        "type": "Point",
        "coordinates": [
          45.29491102034213,
          0.06560626640775236
        ]
      }
    }
  ]
}